0 SL-16 DEB
1 22432U 92093DZ  13282.77347906  .00000561  00000-0  39242-3 0  1284
2 22432 070.8350 143.6061 0109758 279.5448 156.6375 14.00077344 56125
0 SL-16 DEB
1 22432U 92093DZ  13286.07676112  .00000491  00000-0  34719-3 0  1304
2 22432 070.8345 136.7804 0109726 274.8173 246.0360 14.00082617 56582
0 SL-16 DEB
1 22432U 92093DZ  13288.00649050  .00000760  00000-0  52041-3 0  1318
2 22432 070.8343 132.7926 0109683 272.0544 252.4044 14.00085005 56859
0 SL-16 DEB
1 22432U 92093DZ  13289.55164769  .00000736  00000-0  50486-3 0  1323
2 22432 070.8343 129.5996 0109662 269.8496 120.4328 14.00086835 57073
0 SL-16 DEB
1 22432U 92093DZ  13290.62852600  .00000770  00000-0  52659-3 0  1334
2 22432 070.8344 127.3743 0109623 268.3006 148.2210 14.00088301 57223
0 SL-16 DEB
1 22432U 92093DZ  13292.21319593  .00000723  00000-0  49644-3 0  1349
2 22432 070.8345 124.0995 0109620 266.0352 215.4242 14.00090669 57449
0 SL-16 DEB
1 22432U 92093DZ  13293.47924806  .00000709  00000-0  48776-3 0  1357
2 22432 070.8346 121.4832 0109614 264.2270 116.7055 14.00093281 57621
0 SL-16 DEB
1 22432U 92093DZ  13294.85310655  .00000769  00000-0  52613-3 0  1363
2 22432 070.8348 118.6441 0109613 262.2730 201.3710 14.00095541 57816
0 SL-16 DEB
1 22432U 92093DZ  13295.93464170  .00000827  00000-0  56327-3 0  1377
2 22432 070.8349 116.4091 0109613 260.7281 252.6534 14.00096803 57969
